start=new Date('2022-05-27T00:00:00.000Z').valueOf();
sats=[{"LAUNCH_DATE":"2022-04-21","REV_AT_EPOCH":"130","CLASSIFICATION_TYPE":"U","INCLINATION":"53.2161","TLE_LINE2":"2 52274  53.2161 201.9507 0001657  32.2806  98.5181 15.49914109  1303","MEAN_MOTION":"15.49914109","EPOCH":"2022-05-26T22:00:00.999936","DECAY_DATE":null,"RA_OF_ASC_NODE":"201.9507","MEAN_ANOMALY":"98.5181","OBJECT_TYPE":"PAYLOAD","EPHEMERIS_TYPE":"0","OBJECT_NAME":"STARLINK-3790","CENTER_NAME":"EARTH","PERIOD":"92.908","REF_FRAME":"TEME","TLE_LINE1":"1 52274U 22041P   22146.91667824  .00020605  00000-0  36965-3 0  9992","RCS_SIZE":"LARGE","ARG_OF_PERICENTER":"32.2806","OBJECT_ID":"2022-041P","TIME_SYSTEM":"UTC","ELEMENT_SET_NO":"999","MEAN_ELEMENT_THEORY":"SGP4","MEAN_MOTION_DOT":"0.00020605","SITE":"AFETR","SEMIMAJOR_AXIS":"6795.114","GP_ID":"204630131","COUNTRY_CODE":"US","PERIAPSIS":"415.853","FILE":"3466271","MEAN_MOTION_DDOT":"0.0000000000000","BSTAR":"0.00036965000000","APOAPSIS":"418.105","ECCENTRICITY":"0.00016570","NORAD_CAT_ID":"52274"},{"MEAN_MOTION_DOT":"0.00017687","SITE":"AFETR","SEMIMAJOR_AXIS":"6795.250","GP_ID":"204630254","OBJECT_ID":"2022-041Q","TIME_SYSTEM":"UTC","ELEMENT_SET_NO":"999","MEAN_ELEMENT_THEORY":"SGP4","APOAPSIS":"418.242","ECCENTRICITY":"0.00016590","NORAD_CAT_ID":"52275","PERIAPSIS":"415.988","COUNTRY_CODE":"US","FILE":"3466271","MEAN_MOTION_DDOT":"0.0000000000000","BSTAR":"0.00031907000000","TLE_LINE2":"2 52275  53.2158 201.9311 0001659  31.5643  96.0028 15.49867617  1300","MEAN_MOTION":"15.49867617","EPOCH":"2022-05-26T22:00:00.999936","DECAY_DATE":null,"LAUNCH_DATE":"2022-04-21","REV_AT_EPOCH":"130","CLASSIFICATION_TYPE":"U","INCLINATION":"53.2158","CENTER_NAME":"EARTH","PERIOD":"92.911","TLE_LINE1":"1 52275U 22041Q   22146.91667824  .00017687  00000-0  31907-3 0  9990","REF_FRAME":"TEME","RCS_SIZE":"LARGE","ARG_OF_PERICENTER":"31.5643","RA_OF_ASC_NODE":"201.9311","MEAN_ANOMALY":"96.0028","OBJECT_TYPE":"PAYLOAD","EPHEMERIS_TYPE":"0","OBJECT_NAME":"STARLINK-3784"},{"SEMIMAJOR_AXIS":"6795.090","GP_ID":"204630575","SITE":"AFETR","MEAN_MOTION_DOT":"-0.00017691","OBJECT_ID":"2022-041R","MEAN_ELEMENT_THEORY":"SGP4","ELEMENT_SET_NO":"999","TIME_SYSTEM":"UTC","ECCENTRICITY":"0.00017260","APOAPSIS":"418.128","NORAD_CAT_ID":"52276","FILE":"3466271","COUNTRY_CODE":"US","PERIAPSIS":"415.782","BSTAR":"-0.00030402000000","MEAN_MOTION_DDOT":"0.0000000000000","MEAN_MOTION":"15.49922427","TLE_LINE2":"2 52276  53.2161 201.9597 0001726  42.3377  90.2664 15.49922427  1303","DECAY_DATE":null,"EPOCH":"2022-05-26T22:00:00.999936","REV_AT_EPOCH":"130","LAUNCH_DATE":"2022-04-21","CLASSIFICATION_TYPE":"U","INCLINATION":"53.2161","PERIOD":"92.908","CENTER_NAME":"EARTH","TLE_LINE1":"1 52276U 22041R   22146.91667824 -.00017691  00000-0 -30402-3 0  9997","RCS_SIZE":"LARGE","REF_FRAME":"TEME","ARG_OF_PERICENTER":"42.3377","EPHEMERIS_TYPE":"0","OBJECT_TYPE":"PAYLOAD","MEAN_ANOMALY":"90.2664","RA_OF_ASC_NODE":"201.9597","OBJECT_NAME":"STARLINK-3778"},{"OBJECT_TYPE":"PAYLOAD","EPHEMERIS_TYPE":"0","RA_OF_ASC_NODE":"201.9416","MEAN_ANOMALY":"106.3987","OBJECT_NAME":"STARLINK-3787","PERIOD":"92.908","CENTER_NAME":"EARTH","TLE_LINE1":"1 52277U 22041S   22146.91667824  .00019680  00000-0  35346-3 0  9998","RCS_SIZE":"LARGE","ARG_OF_PERICENTER":"22.7255","REF_FRAME":"TEME","REV_AT_EPOCH":"130","LAUNCH_DATE":"2022-04-21","CLASSIFICATION_TYPE":"U","INCLINATION":"53.2154","MEAN_MOTION":"15.49913413","TLE_LINE2":"2 52277  53.2154 201.9416 0001302  22.7255 106.3987 15.49913413  1305","EPOCH":"2022-05-26T22:00:00.999936","DECAY_DATE":null,"COUNTRY_CODE":"US","PERIAPSIS":"416.096","FILE":"3466271","MEAN_MOTION_DDOT":"0.0000000000000","BSTAR":"0.00035346000000","ECCENTRICITY":"0.00013020","APOAPSIS":"417.866","NORAD_CAT_ID":"52277","OBJECT_ID":"2022-041S","MEAN_ELEMENT_THEORY":"SGP4","TIME_SYSTEM":"UTC","ELEMENT_SET_NO":"999","SEMIMAJOR_AXIS":"6795.116","GP_ID":"204630360","MEAN_MOTION_DOT":"0.00019680","SITE":"AFETR"},{"RCS_SIZE":"LARGE","TLE_LINE1":"1 52278U 22041T   22146.91667824 -.00025177  00000-0 -43694-3 0  9994","ARG_OF_PERICENTER":"39.6079","REF_FRAME":"TEME","CENTER_NAME":"EARTH","PERIOD":"92.910","OBJECT_NAME":"STARLINK-3780","RA_OF_ASC_NODE":"201.9721","MEAN_ANOMALY":"93.8536","OBJECT_TYPE":"PAYLOAD","EPHEMERIS_TYPE":"0","EPOCH":"2022-05-26T22:00:00.999936","DECAY_DATE":null,"TLE_LINE2":"2 52278  53.2163 201.9721 0001866  39.6079  93.8536 15.49891229  1301","MEAN_MOTION":"15.49891229","INCLINATION":"53.2163","CLASSIFICATION_TYPE":"U","LAUNCH_DATE":"2022-04-21","REV_AT_EPOCH":"130","NORAD_CAT_ID":"52278","APOAPSIS":"418.314","ECCENTRICITY":"0.00018660","MEAN_MOTION_DDOT":"0.0000000000000","BSTAR":"-0.00043694000000","COUNTRY_CODE":"US","PERIAPSIS":"415.778","FILE":"3466271","MEAN_MOTION_DOT":"-0.00025177","SITE":"AFETR","GP_ID":"204630467","SEMIMAJOR_AXIS":"6795.181","TIME_SYSTEM":"UTC","ELEMENT_SET_NO":"999","MEAN_ELEMENT_THEORY":"SGP4","OBJECT_ID":"2022-041T"},{"FILE":"3466271","COUNTRY_CODE":"US","PERIAPSIS":"416.015","BSTAR":"0.00030617000000","MEAN_MOTION_DDOT":"0.0000000000000","APOAPSIS":"418.125","ECCENTRICITY":"0.00015520","NORAD_CAT_ID":"52279","OBJECT_ID":"2022-041U","ELEMENT_SET_NO":"999","TIME_SYSTEM":"UTC","MEAN_ELEMENT_THEORY":"SGP4","SITE":"AFETR","MEAN_MOTION_DOT":"0.00016962","SEMIMAJOR_AXIS":"6795.205","GP_ID":"204629919","MEAN_ANOMALY":"96.5377","RA_OF_ASC_NODE":"201.9488","EPHEMERIS_TYPE":"0","OBJECT_TYPE":"PAYLOAD","OBJECT_NAME":"STARLINK-3686","CENTER_NAME":"EARTH","PERIOD":"92.910","TLE_LINE1":"1 52279U 22041U   22146.91667824  .00016962  00000-0  30617-3 0  9996","REF_FRAME":"TEME","RCS_SIZE":"LARGE","ARG_OF_PERICENTER":"33.5282","LAUNCH_DATE":"2022-04-21","REV_AT_EPOCH":"130","CLASSIFICATION_TYPE":"U","INCLINATION":"53.2161","TLE_LINE2":"2 52279  53.2161 201.9488 0001552  33.5282  96.5377 15.49883044  1300","MEAN_MOTION":"15.49883044","DECAY_DATE":null,"EPOCH":"2022-05-26T22:00:00.999936"},{"TLE_LINE1":"1 52280U 22041V   22146.91667824 -.00001129  00000-0 -11952-4 0  9991","RCS_SIZE":"LARGE","ARG_OF_PERICENTER":"37.1621","REF_FRAME":"TEME","PERIOD":"92.911","CENTER_NAME":"EARTH","OBJECT_NAME":"STARLINK-3764","EPHEMERIS_TYPE":"0","OBJECT_TYPE":"PAYLOAD","MEAN_ANOMALY":"98.8133","RA_OF_ASC_NODE":"202.0094","DECAY_DATE":null,"EPOCH":"2022-05-26T22:00:00.999936","MEAN_MOTION":"15.49874179","TLE_LINE2":"2 52280  53.2152 202.0094 0001503  37.1621  98.8133 15.49874179  1304","CLASSIFICATION_TYPE":"U","INCLINATION":"53.2152","REV_AT_EPOCH":"130","LAUNCH_DATE":"2022-04-21","NORAD_CAT_ID":"52280","APOAPSIS":"418.117","ECCENTRICITY":"0.00015030","BSTAR":"-0.00001195200000","MEAN_MOTION_DDOT":"0.0000000000000","FILE":"3466271","PERIAPSIS":"416.074","COUNTRY_CODE":"US","GP_ID":"204630663","SEMIMAJOR_AXIS":"6795.231","SITE":"AFETR","MEAN_MOTION_DOT":"-0.00001129","MEAN_ELEMENT_THEORY":"SGP4","ELEMENT_SET_NO":"999","TIME_SYSTEM":"UTC","OBJECT_ID":"2022-041V"},{"OBJECT_TYPE":"PAYLOAD","EPHEMERIS_TYPE":"0","RA_OF_ASC_NODE":"201.9594","MEAN_ANOMALY":"87.7149","OBJECT_NAME":"STARLINK-3779","PERIOD":"92.911","CENTER_NAME":"EARTH","RCS_SIZE":"LARGE","TLE_LINE1":"1 52281U 22041W   22146.91667824  .00018911  00000-0  34045-3 0  9994","ARG_OF_PERICENTER":"43.8050","REF_FRAME":"TEME","REV_AT_EPOCH":"130","LAUNCH_DATE":"2022-04-21","CLASSIFICATION_TYPE":"U","INCLINATION":"53.2161","MEAN_MOTION":"15.49875344","TLE_LINE2":"2 52281  53.2161 201.9594 0001934  43.8050  87.7149 15.49875344  1305","EPOCH":"2022-05-26T22:00:00.999936","DECAY_DATE":null,"PERIAPSIS":"415.778","COUNTRY_CODE":"US","FILE":"3466271","MEAN_MOTION_DDOT":"0.0000000000000","BSTAR":"0.00034045000000","APOAPSIS":"418.407","ECCENTRICITY":"0.00019340","NORAD_CAT_ID":"52281","OBJECT_ID":"2022-041W","MEAN_ELEMENT_THEORY":"SGP4","TIME_SYSTEM":"UTC","ELEMENT_SET_NO":"999","GP_ID":"204630026","SEMIMAJOR_AXIS":"6795.227","MEAN_MOTION_DOT":"0.00018911","SITE":"AFETR"},{"PERIAPSIS":"347.264","COUNTRY_CODE":"US","FILE":"3466271","MEAN_MOTION_DDOT":"0.0000000000000","BSTAR":"0.00022561000000","APOAPSIS":"352.670","ECCENTRICITY":"0.00040180","NORAD_CAT_ID":"52282","OBJECT_ID":"2022-041X","TIME_SYSTEM":"UTC","ELEMENT_SET_NO":"999","MEAN_ELEMENT_THEORY":"SGP4","MEAN_MOTION_DOT":"0.00031071","SITE":"AFETR","GP_ID":"204630132","SEMIMAJOR_AXIS":"6728.102","RA_OF_ASC_NODE":"200.4521","MEAN_ANOMALY":"144.6228","OBJECT_TYPE":"PAYLOAD","EPHEMERIS_TYPE":"0","OBJECT_NAME":"STARLINK-3783","CENTER_NAME":"EARTH","PERIOD":"91.537","RCS_SIZE":"LARGE","TLE_LINE1":"1 52282U 22041X   22146.91667824  .00031071  00000-0  22561-3 0  9997","ARG_OF_PERICENTER":"353.6710","REF_FRAME":"TEME","LAUNCH_DATE":"2022-04-21","REV_AT_EPOCH":"130","CLASSIFICATION_TYPE":"U","INCLINATION":"53.2154","TLE_LINE2":"2 52282  53.2154 200.4521 0004018 353.6710 144.6228 15.73127490  1303","MEAN_MOTION":"15.73127490","EPOCH":"2022-05-26T22:00:00.999936","DECAY_DATE":null},{"APOAPSIS":"418.413","ECCENTRICITY":"0.00019580","NORAD_CAT_ID":"52283","FILE":"3466271","PERIAPSIS":"415.752","COUNTRY_CODE":"US","BSTAR":"0.00033970000000","MEAN_MOTION_DDOT":"0.0000000000000","GP_ID":"204630255","SEMIMAJOR_AXIS":"6795.218","SITE":"AFETR","MEAN_MOTION_DOT":"0.00018870","OBJECT_ID":"2022-041Y","MEAN_ELEMENT_THEORY":"SGP4","ELEMENT_SET_NO":"999","TIME_SYSTEM":"UTC","PERIOD":"92.911","CENTER_NAME":"EARTH","ARG_OF_PERICENTER":"47.3931","TLE_LINE1":"1 52283U 22041Y   22146.91667824  .00018870  00000-0  33970-3 0  9996","RCS_SIZE":"LARGE","REF_FRAME":"TEME","EPHEMERIS_TYPE":"0","OBJECT_TYPE":"PAYLOAD","MEAN_ANOMALY":"86.6638","RA_OF_ASC_NODE":"201.9850","OBJECT_NAME":"STARLINK-3789","MEAN_MOTION":"15.49878623","TLE_LINE2":"2 52283  53.2166 201.9850 0001958  47.3931  86.6638 15.49878623  1304","DECAY_DATE":null,"EPOCH":"2022-05-26T22:00:00.999936","REV_AT_EPOCH":"130","LAUNCH_DATE":"2022-04-21","CLASSIFICATION_TYPE":"U","INCLINATION":"53.2166"}];
